     3.00           N                   E                   RINEX VERSION / TYPE
BRD_USR             ESA                 20190110 191633  UTCPGM / RUN BY / DATE
 GAL   4.2500E+01  1.9531E-02 -1.3733E-03  0.0000E+00       IONOSPHERIC CORR
GAUT  3.7252902985E-09-1.776356839E-15 345600 2035 GSTB   0 TIME SYSTEM CORR
GPGA -2.8812792152E-09-7.993605777E-15 432000 2035 GSTB   0 TIME SYSTEM CORR
                                                            END OF HEADER
E21 2019 01 10 17 10 00-5.137684638612E-04-1.875832822407E-12 0.000000000000E+00
     3.900000000000E+01-1.906250000000E+00 2.713327306688E-09-1.871241529818E+00
    -4.097819328308E-08 5.056592635810E-05 9.212642908096E-06 5.440626276016E+03
     4.074000000000E+05-5.587935447693E-09-2.950935326987E+00-1.303851604462E-08
     9.897717235994E-01 1.572187500000E+02 5.321104113916E-03-5.316292873509E-09
    -5.232360805973E-10 5.210000000000E+02 2.035000000000E+03 0.000000000000E+00
     3.120000000000E+00 0.000000000000E+00-2.561137080193E-09-3.259629011154E-09
     4.080850000000E+05 0.000000000000E+00 0.000000000000E+00 0.000000000000E+00
E26 2019 01 10 17 10 00 5.035055917688E-03-4.325784175307E-11 0.000000000000E+00
     3.900000000000E+01 2.125000000000E+00 3.077985353302E-09-1.939056392065E+00
     1.247972249985E-07 3.221171209589E-04 8.121132850647E-07 5.440605358124E+03
     4.074000000000E+05 7.450580596924E-09-8.593443596219E-01 2.421438694000E-08
     9.782590162090E-01 3.292187500000E+02-2.031119152197E+00-5.873816096589E-09
     1.203621564241E-10 5.210000000000E+02 2.035000000000E+03 0.000000000000E+00
     3.120000000000E+00 0.000000000000E+00 1.164153218269E-09 1.164153218269E-09
     4.080850000000E+05 0.000000000000E+00 0.000000000000E+00 0.000000000000E+00
E30 2019 01 10 17 10 00 5.199277133215E-03-3.055333763768E-11 0.000000000000E+00
     3.900000000000E+01 1.281250000000E+00 2.757614865728E-09-8.497248920525E-01
    -6.519258022308E-08 3.088157391176E-04 9.579584002495E-06 5.440612333298E+03
     4.074000000000E+05-4.097819328308E-08-2.944918595086E+00-5.960464477539E-08
     9.877608783311E-01 1.463750000000E+02 5.363330249490E-01-5.371652322309E-09
    -5.957391006391E-10 5.210000000000E+02 2.035000000000E+03 0.000000000000E+00
     3.120000000000E+00 0.000000000000E+00-2.793967723846E-09-3.492459654808E-09
     4.080850000000E+05 0.000000000000E+00 0.000000000000E+00 0.000000000000E+00
E31 2019 01 10 17 10 00 9.360628901049E-04-9.620748642192E-12 0.000000000000E+00
     3.900000000000E+01 8.187500000000E+00 2.587964941985E-09-1.915225038159E+00
     2.328306436539E-07 2.405534032732E-04 9.618699550629E-06 5.440628931046E+03
     4.074000000000E+05 3.166496753693E-08-2.950966563214E+00 6.891787052155E-08
     9.897477434463E-01 1.454687500000E+02-1.519997750213E+00-5.195216401616E-09
    -5.818099490054E-10 5.210000000000E+02 2.035000000000E+03 0.000000000000E+00
     3.120000000000E+00 0.000000000000E+00 0.000000000000E+00-2.328306436539E-10
     4.080850000000E+05 0.000000000000E+00 0.000000000000E+00 0.000000000000E+00
E33 2019 01 10 17 10 00 8.478946401738E-04 9.947598300641E-14 0.000000000000E+00
     3.900000000000E+01-9.937500000000E+00 2.927621947205E-09 2.973251173834E+00
    -4.507601261139E-07 3.658550558612E-04 1.076608896255E-06 5.440598720551E+03
     4.074000000000E+05 2.048909664154E-08-8.682979990455E-01 7.450580596924E-09
     9.851384382159E-01 3.288437500000E+02-1.451862100753E+00-5.809170546699E-09
     8.107480566251E-11 5.210000000000E+02 2.035000000000E+03 0.000000000000E+00
     3.120000000000E+00 4.550000000000E+02-7.916241884232E-09-9.080395102501E-09
     4.080850000000E+05 0.000000000000E+00 0.000000000000E+00 0.000000000000E+00
E01 2019 01 10 17 10 00-5.179129657336E-04-8.043343768804E-12 0.000000000000E+00
     3.900000000000E+01 6.187500000000E+00 2.676182902331E-09-1.936834453569E+00
     2.738088369370E-07 1.063015079126E-04 9.451061487198E-06 5.440622182846E+03
     4.074000000000E+05-2.793967723846E-08-2.948326657320E+00-4.656612873077E-08
     9.902082334847E-01 1.494062500000E+02-7.305761729615E-01-5.329864867408E-09
    -5.475228065226E-10 2.580000000000E+02 2.035000000000E+03 0.000000000000E+00
     3.120000000000E+00 0.000000000000E+00-4.656612873077E-09 0.000000000000E+00
     4.081000000000E+05 0.000000000000E+00 0.000000000000E+00 0.000000000000E+00
E02 2019 01 10 17 10 00 4.277151310816E-05 1.548983163957E-12 0.000000000000E+00
     3.900000000000E+01 9.906250000000E+00 2.709398571611E-09 6.823488328992E-01
     4.917383193970E-07 2.679668832570E-04 9.389594197273E-06 5.440617887497E+03
     4.074000000000E+05 3.911554813385E-08-2.948359710491E+00-2.421438694000E-08
     9.902169393102E-01 1.480000000000E+02-2.098806670351E-01-5.299149302267E-09
    -6.060966749308E-10 2.580000000000E+02 2.035000000000E+03 0.000000000000E+00
     3.120000000000E+00 0.000000000000E+00-6.053596735001E-09 0.000000000000E+00
     4.081000000000E+05 0.000000000000E+00 0.000000000000E+00 0.000000000000E+00
E05 2019 01 10 17 10 00 1.273682573810E-04-6.508571459563E-12 0.000000000000E+00
     3.900000000000E+01 1.021875000000E+01 3.305494829985E-09 1.755509131133E+00
     4.582107067108E-07 1.301054144278E-04 1.130811870098E-05 5.440621070862E+03
     4.074000000000E+05-2.421438694000E-08 1.242285378355E+00 2.235174179077E-08
     9.524166882980E-01 9.481250000000E+01 1.595351594009E+00-5.536302037773E-09
     4.775198906202E-10 2.580000000000E+02 2.035000000000E+03 0.000000000000E+00
     3.120000000000E+00 0.000000000000E+00-1.629814505577E-09 0.000000000000E+00
     4.081000000000E+05 0.000000000000E+00 0.000000000000E+00 0.000000000000E+00
E08 2019 01 10 17 10 00 6.426066625863E-03-7.446487870766E-12 0.000000000000E+00
     3.900000000000E+01-1.934375000000E+01 3.101914921493E-09 1.326274491102E+00
    -8.177012205124E-07 2.150782383978E-04 1.127272844315E-05 5.440623579025E+03
     4.074000000000E+05 1.303851604462E-08 1.233682950452E+00 4.284083843231E-08
     9.583909253546E-01 9.565625000000E+01 4.533008347136E-01-5.445583973288E-09
     4.721625246072E-10 2.580000000000E+02 2.035000000000E+03 0.000000000000E+00
     3.120000000000E+00 0.000000000000E+00-8.381903171539E-09 0.000000000000E+00
     4.081000000000E+05 0.000000000000E+00 0.000000000000E+00 0.000000000000E+00
E09 2019 01 10 17 10 00 6.562250666320E-03-1.129762949859E-11 0.000000000000E+00
     3.900000000000E+01 1.546875000000E+01 3.167631944585E-09-2.219873000015E+00
     5.532056093216E-07 2.411600435153E-04 1.109950244427E-05 5.440621013641E+03
     4.074000000000E+05-3.352761268616E-08 1.233680387420E+00 5.587935447693E-09
     9.584212955340E-01 1.009687500000E+02 7.119179943563E-02-5.485942797252E-09
     4.700195782020E-10 2.580000000000E+02 2.035000000000E+03 0.000000000000E+00
     3.120000000000E+00 0.000000000000E+00-3.492459654808E-09 0.000000000000E+00
     4.081000000000E+05 0.000000000000E+00 0.000000000000E+00 0.000000000000E+00
E11 2019 01 10 17 10 00 5.719500943087E-03 9.521272659185E-13 0.000000000000E+00
     3.900000000000E+01-1.109375000000E+01 3.009053910602E-09 3.095248611357E-01
    -4.041939973831E-07 2.656587166712E-04 7.972121238708E-07 5.440600484848E+03
     4.074000000000E+05 6.146728992462E-08-8.629708501541E-01-2.793967723846E-08
     9.819010751153E-01 3.332812500000E+02-3.626428533705E-01-5.860244102689E-09
     1.203621564241E-10 2.580000000000E+02 2.035000000000E+03 0.000000000000E+00
     3.120000000000E+00 0.000000000000E+00-1.885928213596E-08 0.000000000000E+00
     4.081000000000E+05 0.000000000000E+00 0.000000000000E+00 0.000000000000E+00
E13 2019 01 10 17 10 00 3.815665259026E-04 4.973799150321E-13 0.000000000000E+00
     3.900000000000E+01 5.750000000000E+00 2.968337928904E-09-1.651050687220E+00
     3.371387720108E-07 3.419824643061E-04 1.467764377594E-06 5.440593158722E+03
     4.074000000000E+05-1.862645149231E-08-8.682620990358E-01 2.980232238770E-08
     9.851421979154E-01 3.205625000000E+02-1.537186527086E+00-5.824885487004E-09
     1.457203555520E-10 2.580000000000E+02 2.035000000000E+03 0.000000000000E+00
     3.120000000000E+00 5.600000000000E+01-4.423782229424E-09 0.000000000000E+00
     4.081000000000E+05 0.000000000000E+00 0.000000000000E+00 0.000000000000E+00
E14 2019 01 10 17 10 00 6.461891753133E-03-5.584865903074E-12 0.000000000000E+00
     3.900000000000E+01 9.512500000000E+01 2.194734276635E-09-1.567573922032E+00
     6.964430212975E-06 1.663010420743E-01 5.383044481277E-07 5.289383876801E+03
     4.074000000000E+05 5.543231964111E-06-1.464452095165E+00 1.441687345505E-06
     8.826218395767E-01 3.376250000000E+02 1.456109611713E+00-3.464430021702E-09
     2.292952653539E-10 2.580000000000E+02 2.035000000000E+03 0.000000000000E+00
     3.120000000000E+00 5.600000000000E+01 3.282912075520E-08 0.000000000000E+00
     4.081000000000E+05 0.000000000000E+00 0.000000000000E+00 0.000000000000E+00
E15 2019 01 10 17 10 00 9.233289165422E-04-1.094235813071E-12 0.000000000000E+00
     3.900000000000E+01 6.531250000000E+00 2.964766351562E-09-7.766868782975E-01
     3.557652235031E-07 3.900465089828E-04 1.301988959312E-06 5.440592935562E+03
     4.074000000000E+05-6.519258022308E-08-8.682733869117E-01 1.117587089539E-08
     9.851004403817E-01 3.242812500000E+02-1.629294099325E+00-5.825599802472E-09
     1.378628853997E-10 2.580000000000E+02 2.035000000000E+03 0.000000000000E+00
     3.120000000000E+00 5.600000000000E+01 1.396983861923E-09 0.000000000000E+00
     4.081000000000E+05 0.000000000000E+00 0.000000000000E+00 0.000000000000E+00
